     2.100          NAVIGATION                              RINEX VERSION / TYPE
fic2rin                                 08/15/2017 00:16:19 PGM / RUN BY / DATE
                                                            END OF HEADER
16 17  8 14 14  0  0.0  .366983003914D-04  .227373675443D-12  .000000000000D+00
     .410000000000D+02 -.378125000000D+02  .403802534282D-08  .304241435062D+01
    -.196322798729D-05  .927520042751D-02  .619515776634D-05  .515374514771D+04
     .136800000000D+06 -.139698386192D-06  .367539111445D+00 -.108033418655D-06
     .989459658304D+00  .276906250000D+03  .461642250236D+00 -.778639576321D-08
    -.153220667970D-09  .100000000000D+01  .196200000000D+04  .000000000000D+00
     .240000000000D+01  .000000000000D+00 -.107102096081D-07  .410000000000D+02
     .129606000000D+06  .400000000000D+01
17 17  8 14 14  0  0.0 -.163507182151D-03  .238742359215D-11  .000000000000D+00
     .290000000000D+02 -.416562500000D+02  .399052336417D-08  .214409128487D+01
    -.227801501751D-05  .117279238766D-01  .105854123831D-04  .515367481041D+04
     .136800000000D+06  .726431608200D-07  .138445672244D+01 -.219792127609D-06
     .980419718417D+00  .182218750000D+03 -.184637632732D+01 -.765960476757D-08
     .725030200418D-10  .100000000000D+01  .196200000000D+04  .000000000000D+00
     .240000000000D+01  .000000000000D+00 -.111758708954D-07  .290000000000D+02
     .129606000000D+06  .400000000000D+01
18 17  8 14 14  0  0.0  .626969616860D-03  .113686837722D-11  .000000000000D+00
     .320000000000D+02 -.427500000000D+02  .529914930227D-08 -.267876827631D+01
    -.212341547012D-05  .181380201830D-01  .677630305290D-05  .515362170410D+04
     .136800000000D+06  .225380063057D-06 -.290000810139D+01 -.372529029846D-07
     .926171914549D+00  .228437500000D+03 -.178733785588D+01 -.819248410699D-08
    -.135719938995D-09  .100000000000D+01  .196200000000D+04  .000000000000D+00
     .240000000000D+01  .000000000000D+00 -.111758708954D-07  .320000000000D+02
     .129606000000D+06  .400000000000D+01
19 17  8 14 14  0  0.0 -.491109210998D-03  .181898940355D-11  .000000000000D+00
     .560000000000D+02 -.269687500000D+02  .412767193410D-08 -.113371046144D+01
    -.117905437946D-05  .101816175738D-01  .102128833532D-04  .515367994881D+04
     .136800000000D+06  .111758708954D-06  .143212915720D+01  .212341547012D-06
     .977727093344D+00  .190531250000D+03  .104770796819D+01 -.789247161027D-08
     .129648257513D-09  .100000000000D+01  .196200000000D+04  .000000000000D+00
     .240000000000D+01  .000000000000D+00 -.153668224812D-07  .560000000000D+02
     .129606000000D+06  .400000000000D+01
20 17  8 14 14  0  0.0  .483222771436D-03  .125055521494D-11  .000000000000D+00
     .430000000000D+02 -.372187500000D+02  .553665919551D-08  .119425189396D+01
    -.216439366341D-05  .443559256382D-02  .687874853611D-05  .515371862030D+04
     .136800000000D+06  .279396772385D-07 -.295121737906D+01 -.800937414169D-07
     .927562868762D+00  .234031250000D+03  .164268706314D+01 -.864393148301D-08
    -.264653881039D-09  .100000000000D+01  .196200000000D+04  .000000000000D+00
     .240000000000D+01  .000000000000D+00 -.838190317154D-08  .430000000000D+02
     .129606000000D+06  .400000000000D+01
21 17  8 14 14  0  0.0 -.487233977765D-03  .284217094304D-11  .000000000000D+00
     .170000000000D+02  .646875000000D+01  .499842249007D-08 -.177903762442D+01
     .590458512306D-06  .239453342510D-01  .666640698910D-05  .515362809753D+04
     .136800000000D+06  .337138772011D-06  .234335786388D+01  .404193997383D-06
     .940654815237D+00  .236375000000D+03 -.164962006159D+01 -.816676875013D-08
     .182150444440D-09  .100000000000D+01  .196200000000D+04  .000000000000D+00
     .240000000000D+01  .000000000000D+00 -.977888703346D-08  .170000000000D+02
     .129606000000D+06  .400000000000D+01
22 17  8 14 14  0  0.0 -.878591090441D-04 -.126192389871D-10  .000000000000D+00
     .390000000000D+02 -.444687500000D+02  .556416034104D-08  .152510928985D+01
    -.262819230556D-05  .737785245292D-02  .723265111446D-05  .515375145531D+04
     .136800000000D+06 -.502914190292D-07 -.290029587200D+01 -.162050127983D-06
     .924241769694D+00  .222093750000D+03 -.169019766551D+01 -.858928634968D-08
    -.311441544219D-09  .100000000000D+01  .196200000000D+04  .000000000000D+00
     .240000000000D+01  .000000000000D+00 -.176951289177D-07  .390000000000D+02
     .129606000000D+06  .400000000000D+01
23 17  8 14 14  0  0.0 -.216286163777D-03 -.454747350886D-12  .000000000000D+00
     .270000000000D+02  .353125000000D+02  .471948229967D-08  .769354456393D+00
     .199489295483D-05  .118910779711D-01  .106114894152D-04  .515370190811D+04
     .136800000000D+06 -.204890966415D-06 -.181467480330D+01  .156462192535D-06
     .943900607672D+00  .168687500000D+03 -.243065611927D+01 -.817748348215D-08
    -.191793703263D-09  .100000000000D+01  .196200000000D+04  .000000000000D+00
     .240000000000D+01  .000000000000D+00 -.204890966415D-07  .270000000000D+02
     .129606000000D+06  .400000000000D+01
24 17  8 14 14  0  0.0 -.388347543776D-04 -.454747350886D-12  .000000000000D+00
     .210000000000D+02  .670937500000D+02  .507378277199D-08  .225901466206D+00
     .354647636414D-05  .577380077448D-02  .631995499134D-05  .515368074226D+04
     .136800000000D+06  .353902578354D-07 -.791798377329D+00  .447034835815D-07
     .944442716836D+00  .250843750000D+03  .472930259261D+00 -.853249826994D-08
     .185007706314D-09  .100000000000D+01  .196200000000D+04  .000000000000D+00
     .240000000000D+01  .000000000000D+00  .279396772385D-08  .210000000000D+02
     .129606000000D+06  .400000000000D+01
25 17  8 14 14  0  0.0 -.438897870481D-03 -.648014975013D-11  .000000000000D+00
     .870000000000D+02 -.230937500000D+02  .442589864216D-08 -.171415336891D+01
    -.124238431454D-05  .655418075621D-02  .503659248352D-05  .515376931572D+04
     .136800000000D+06  .152736902237D-06  .292454743011D+00 -.409781932831D-07
     .976868268267D+00  .290187500000D+03  .831476808884D+00 -.810248035797D-08
    -.435732435719D-10  .100000000000D+01  .196200000000D+04  .000000000000D+00
     .340000000000D+01  .000000000000D+00  .558793544769D-08  .870000000000D+02
     .129606000000D+06  .400000000000D+01
26 17  8 14 14  0  0.0 -.452281441540D-03  .898126018001D-11  .000000000000D+00
     .100000000000D+03 -.243750000000D+02  .477698469487D-08 -.233215750560D+01
    -.136345624924D-05  .182555825450D-02  .542029738426D-05  .515375129128D+04
     .136800000000D+06 -.521540641785D-07  .275650233756D+00 -.968575477600D-07
     .958585938186D+00  .276937500000D+03  .384692814857D-01 -.832963267692D-08
    -.120719314158D-09  .100000000000D+01  .196200000000D+04  .000000000000D+00
     .340000000000D+01  .000000000000D+00  .745058059692D-08  .100000000000D+03
     .129606000000D+06  .400000000000D+01
27 17  8 14 14  0  0.0  .310186762363D-03  .579802872380D-11  .000000000000D+00
     .940000000000D+02 -.239062500000D+02  .423981946264D-08  .215464745596D+01
    -.123679637909D-05  .491066277027D-02  .964291393757D-05  .515367155075D+04
     .136800000000D+06 -.147148966789D-06  .133201083427D+01  .465661287308D-07
     .975296215036D+00  .202000000000D+03  .398054871600D+00 -.788997150613D-08
     .882179603464D-10  .100000000000D+01  .196200000000D+04  .000000000000D+00
     .240000000000D+01  .000000000000D+00  .139698386192D-08  .940000000000D+02
     .129606000000D+06  .400000000000D+01
28 17  8 14 14  0  0.0  .637282151729D-03  .306954461848D-11  .000000000000D+00
     .470000000000D+02 -.466250000000D+02  .407088385437D-08  .304344562594D+01
    -.247545540333D-05  .197521999944D-01  .591762363911D-05  .515365627480D+04
     .136800000000D+06  .365078449249D-06  .372037605020D+00 -.745058059692D-08
     .988268971724D+00  .276125000000D+03 -.156625069946D+01 -.774353683511D-08
    -.223937899341D-09  .100000000000D+01  .196200000000D+04  .000000000000D+00
     .340000000000D+01  .000000000000D+00 -.111758708954D-07  .470000000000D+02
     .129606000000D+06  .400000000000D+01
29 17  8 14 14  0  0.0  .574711244553D-03 -.409272615798D-11  .000000000000D+00
     .590000000000D+02 -.366250000000D+02  .410338520818D-08 -.279570109290D+01
    -.183284282684D-05  .595793710090D-03  .901892781258D-05  .515358753204D+04
     .136800000000D+06  .353902578354D-07  .139469024549D+01 -.104308128357D-06
     .981566409198D+00  .214375000000D+03  .803093532709D+00 -.788497129785D-08
     .607168148133D-10  .100000000000D+01  .196200000000D+04  .000000000000D+00
     .240000000000D+01  .000000000000D+00 -.102445483208D-07  .590000000000D+02
     .129606000000D+06  .400000000000D+01
30 17  8 14 14  0  0.0  .145815778524D-03 -.181898940355D-11  .000000000000D+00
     .430000000000D+02  .741250000000D+02  .500985153757D-08 -.699073959831D+00
     .380165874958D-05  .305398844648D-02  .519305467606D-05  .515364096832D+04
     .136800000000D+06  .782310962677D-07 -.699218806276D+00 -.521540641785D-07
     .947161462311D+00  .268062500000D+03 -.308703045985D+01 -.852964100807D-08
     .243224416988D-09  .100000000000D+01  .196200000000D+04  .000000000000D+00
     .240000000000D+01  .000000000000D+00  .372529029846D-08  .430000000000D+02
     .129606000000D+06  .400000000000D+01
31 17  8 14 14  0  0.0  .181941781193D-03 -.250111042988D-11  .000000000000D+00
     .330000000000D+02  .617812500000D+02  .450483050142D-08 -.872086272225D+00
     .300817191601D-05  .844480667729D-02  .580586493015D-05  .515375972939D+04
     .136800000000D+06 -.931322574615D-08 -.725714139855D+00 -.137835741043D-06
     .966168621487D+00  .265812500000D+03 -.249504590262D+00 -.824712924032D-08
     .238224208709D-09  .100000000000D+01  .196200000000D+04  .000000000000D+00
     .240000000000D+01  .000000000000D+00 -.135041773319D-07  .330000000000D+02
     .129606000000D+06  .400000000000D+01
